NORAD_CAT_ID,OBJECT_NAME,OBJECT_TYPE,EPOCH,MEAN_MOTION,ECCENTRICITY,INCLINATION,RA_OF_ASC_NODE,ARG_OF_PERICENTER,MEAN_ANOMALY,BSTAR,MEAN_MOTION_DOT,MEAN_MOTION_DDOT,TLE_LINE0,TLE_LINE1,TLE_LINE2,SEMIMAJOR_AXIS,PERIOD,APOGEE,PERIGEE,DECAYED
55429.0,STARLINK-5645,PAYLOAD,2023-04-19 08:30:37,15.70002832,0.0004226,70.0014,231.3376,222.2753,137.8118,7.5844e-05,8.947e-05,0.0,0 STARLINK-5645,1 55429U 23014AQ  23109.35459904  .00008947  00000-0  75844-4 0  9999,2 55429  70.0014 231.3376 0004226 222.2753 137.8118 15.70002832 13338,6737.026,91.72,361.738,356.044,0.0
55429.0,STARLINK-5645,PAYLOAD,2023-04-19 17:42:12,15.69373517,0.0006977,70.0015,230.2655,204.1787,155.9082,-0.00050335,-0.0005903,0.0,0 STARLINK-5645,1 55429U 23014AQ  23109.73764845 -.00059030  00000-0 -50335-3 0  9992,2 55429  70.0015 230.2655 0006977 204.1787 155.9082 15.69373517 13394,6738.827,91.756,365.393,355.99,0.0
55429.0,STARLINK-5645,PAYLOAD,2023-04-20 14:00:01,15.66402829,0.0003505,70.0009,227.8932,274.2012,176.5248,-0.0093856,-0.00893199,0.0,0 STARLINK-5645,1 55429U 23014AQ  23110.58334491 -.00893199  00000-0 -93856-2 0  9993,2 55429  70.0009 227.8932 0003505 274.2012 176.5248 15.66402829  1307,6747.344,91.93,371.574,366.844,0.0
55429.0,STARLINK-5645,PAYLOAD,2023-04-20 22:00:00,15.65790958,0.000335,70.0007,226.9614,274.085,255.3622,-0.010424,-0.00960974,0.0,0 STARLINK-5645,1 55429U 23014AQ  23110.91667824 -.00960974  00000-0 -10424-1 0  9994,2 55429  70.0007 226.9614 0003350 274.0850 255.3622 15.65790958 12630,6749.102,91.966,373.228,368.706,0.0
55429.0,STARLINK-5645,PAYLOAD,2023-04-21 14:00:01,15.64448295,0.0003708,70.0011,225.1007,270.5973,53.9914,-0.010254,-0.00901569,0.0,0 STARLINK-5645,1 55429U 23014AQ  23111.58334491 -.00901569  00000-0 -10254-1 0  9995,2 55429  70.0011 225.1007 0003708 270.5973  53.9914 15.64448295  1307,6752.963,92.045,377.332,372.324,0.0
55429.0,STARLINK-5645,PAYLOAD,2023-04-21 22:00:00,15.63826755,0.0003688,70.0006,224.1715,271.8518,129.1098,-0.011062,-0.00944647,0.0,0 STARLINK-5645,1 55429U 23014AQ  23111.91667824 -.00944647  00000-0 -11062-1 0  9993,2 55429  70.0006 224.1715 0003688 271.8518 129.1098 15.63826755  1301,6754.752,92.082,379.108,374.126,0.0
55429.0,STARLINK-5645,PAYLOAD,2023-04-22 14:00:01,15.62474155,0.0003571,70.0006,222.316,271.9032,279.5077,-0.010662,-0.0087002,0.0,0 STARLINK-5645,1 55429U 23014AQ  23112.58334491 -.00870020  00000-0 -10662-1 0  9996,2 55429  70.0006 222.3160 0003571 271.9032 279.5077 15.62474155  1307,6758.65,92.162,382.928,378.101,0.0
55429.0,STARLINK-5645,PAYLOAD,2023-04-22 22:00:01,15.61880425,0.0003472,70.0004,221.3896,270.3391,355.1579,-0.012235,-0.0096569,0.0,0 STARLINK-5645,1 55429U 23014AQ  23112.91668981 -.00965690  00000-0 -12235-1 0  9993,2 55429  70.0004 221.3896 0003472 270.3391 355.1579 15.61880425  1309,6760.363,92.197,384.575,379.88,0.0
55429.0,STARLINK-5645,PAYLOAD,2023-04-23 06:00:00,15.61210171,0.0003562,70.0007,220.4645,266.3886,72.3046,-0.011842,-0.00915529,0.0,0 STARLINK-5645,1 55429U 23014AQ  23113.25001157 -.00915529  00000-0 -11842-1 0  9996,2 55429  70.0007 220.4645 0003562 266.3886  72.3046 15.61210171 13000,6762.297,92.236,386.571,381.754,0.0
55429.0,STARLINK-5645,PAYLOAD,2023-04-23 14:00:01,15.60517716,0.0003535,70.0005,219.54,274.4521,136.7371,-0.011476,-0.00868137,0.0,0 STARLINK-5645,1 55429U 23014AQ  23113.58334491 -.00868137  00000-0 -11476-1 0  9997,2 55429  70.0005 219.5400 0003535 274.4521 136.7371 15.60517716  1302,6764.298,92.277,388.554,383.771,0.0
55429.0,STARLINK-5645,PAYLOAD,2023-04-23 22:00:00,15.59919166,0.0003365,69.9999,218.6162,273.4686,209.3981,-0.013085,-0.0095811,0.0,0 STARLINK-5645,1 55429U 23014AQ  23113.91667824 -.00958110  00000-0 -13085-1 0  9992,2 55429  69.9999 218.6162 0003365 273.4686 209.3981 15.59919166 13106,6766.028,92.312,390.17,385.616,0.0
55429.0,STARLINK-5645,PAYLOAD,2023-04-24 06:00:00,15.59258598,0.0003263,69.9999,217.6935,264.4238,289.3525,-0.01291,-0.00924943,0.0,0 STARLINK-5645,1 55429U 23014AQ  23114.25001157 -.00924943  00000-0 -12910-1 0  9994,2 55429  69.9999 217.6935 0003263 264.4238 289.3525 15.59258598 13166,6767.939,92.352,392.012,387.595,0.0
55429.0,STARLINK-5645,PAYLOAD,2023-04-24 14:00:01,15.58556009,0.0003317,70.0,216.7714,271.0959,352.8329,-0.012202,-0.00857326,0.0,0 STARLINK-5645,1 55429U 23014AQ  23114.58334491 -.00857326  00000-0 -12202-1 0  9994,2 55429  70.0000 216.7714 0003317 271.0959 352.8329 15.58556009  1309,6769.972,92.393,394.083,389.592,0.0
55429.0,STARLINK-5645,PAYLOAD,2023-04-25 14:00:01,15.56607069,0.0003173,69.9995,214.0114,274.4374,195.2514,-0.01333,-0.00869242,0.0,0 STARLINK-5645,1 55429U 23014AQ  23115.58335648 -.00869242  00000-0 -13330-1 0  9993,2 55429  69.9995 214.0114 0003173 274.4374 195.2514 15.56607069 13367,6775.622,92.509,399.637,395.337,0.0
55429.0,STARLINK-5645,PAYLOAD,2023-04-26 14:00:01,15.54653093,0.0003362,69.9995,211.2591,271.376,36.9039,-0.014367,-0.00871315,0.0,0 STARLINK-5645,1 55429U 23014AQ  23116.58334491 -.00871315  00000-0 -14367-1 0  9994,2 55429  69.9995 211.2591 0003362 271.3760  36.9039 15.54653093  1300,6781.298,92.625,405.443,400.883,0.0
55429.0,STARLINK-5645,PAYLOAD,2023-04-26 22:00:00,15.54026539,0.0003388,69.9992,210.3435,271.6566,101.2722,-0.015686,-0.00924395,0.0,0 STARLINK-5645,1 55429U 23014AQ  23116.91667824 -.00924395  00000-0 -15686-1 0  9992,2 55429  69.9992 210.3435 0003388 271.6566 101.2722 15.54026539  1303,6783.121,92.663,407.284,402.688,0.0
55429.0,STARLINK-5645,PAYLOAD,2023-04-27 06:00:02,15.53394126,0.0003369,69.9995,209.4288,269.1278,167.7249,-0.016245,-0.0093445,0.0,0 STARLINK-5645,1 55429U 23014AQ  23117.25002315 -.00934450  00000-0 -16245-1 0  9993,2 55429  69.9995 209.4288 0003369 269.1278 167.7249 15.53394126 13620,6784.962,92.7,409.113,404.541,0.0
55429.0,STARLINK-5645,PAYLOAD,2023-04-27 14:00:01,15.52694314,0.000325,69.9993,208.5151,275.4239,224.5384,-0.015381,-0.00868667,0.0,0 STARLINK-5645,1 55429U 23014AQ  23117.58335648 -.00868667  00000-0 -15381-1 0  9993,2 55429  69.9993 208.5151 0003250 275.4239 224.5384 15.52694314  1308,6787.0,92.742,411.071,406.659,0.0
55429.0,STARLINK-5645,PAYLOAD,2023-04-28 06:00:02,15.51294712,0.0003279,69.9997,206.6904,270.5464,353.2445,-0.0017616,-0.00102569,0.0,0 STARLINK-5645,1 55429U 23014AQ  23118.25002315 -.00102569  00000-0 -17616-2 0  9996,2 55429  69.9997 206.6904 0003279 270.5464 353.2445 15.51294712 13784,6791.082,92.826,415.174,410.72,0.0
55429.0,STARLINK-5645,PAYLOAD,2023-04-28 14:00:01,15.51191067,0.0003347,69.9995,205.7789,277.9612,46.7254,0.00078032,0.00045883,0.0,0 STARLINK-5645,1 55429U 23014AQ  23118.58334491  .00045883  00000-0  78032-3 0  9998,2 55429  69.9995 205.7789 0003347 277.9612  46.7254 15.51191067  1301,6791.384,92.832,415.522,410.976,0.0
55429.0,STARLINK-5645,PAYLOAD,2023-04-28 22:00:00,15.51235499,0.0003421,69.9993,204.8676,275.5999,109.9771,-0.00050317,-0.00029623,0.0,0 STARLINK-5645,1 55429U 23014AQ  23118.91667824 -.00029623  00000-0 -50317-3 0  9996,2 55429  69.9993 204.8676 0003421 275.5999 109.9771 15.51235499 13889,6791.255,92.829,415.443,410.796,0.0
55429.0,STARLINK-5645,PAYLOAD,2023-04-29 14:00:01,15.5119937,0.0003427,69.9999,203.0449,278.3369,229.1428,0.00078168,0.00045977,0.0,0 STARLINK-5645,1 55429U 23014AQ  23119.58335648  .00045977  00000-0  78168-3 0  9998,2 55429  69.9999 203.0449 0003427 278.3369 229.1428 15.51199370 13984,6791.36,92.831,415.553,410.898,0.0
55429.0,STARLINK-5645,PAYLOAD,2023-04-30 06:00:00,15.51244035,0.0003383,70.0,201.2222,270.861,358.3669,-0.00024816,-0.00014725,0.0,0 STARLINK-5645,1 55429U 23014AQ  23120.25001157 -.00014725  00000-0 -24816-3 0  9999,2 55429  70.0000 201.2222 0003383 270.8610 358.3669 15.51244035 14090,6791.23,92.829,415.392,410.797,0.0
55429.0,STARLINK-5645,PAYLOAD,2023-04-30 14:00:01,15.51195567,0.0003354,69.9999,200.3108,278.9852,51.1784,0.00093368,0.00055005,0.0,0 STARLINK-5645,1 55429U 23014AQ  23120.58334491  .00055005  00000-0  93368-3 0  9997,2 55429  69.9999 200.3108 0003354 278.9852  51.1784 15.51195567  1303,6791.371,92.832,415.514,410.958,0.0
55429.0,STARLINK-5645,PAYLOAD,2023-05-01 08:42:01,15.51225329,0.0003054,69.9977,198.1815,269.7203,90.3633,-7.127e-06,-5.83e-06,0.0,0 STARLINK-5645,1 55429U 23014AQ  23121.36252141 -.00000583  00000-0 -71270-5 0  9998,2 55429  69.9977 198.1815 0003054 269.7203  90.3633 15.51225329 14260,6791.284,92.83,415.223,411.075,0.0
55429.0,STARLINK-5645,PAYLOAD,2023-05-01 13:20:36,15.51185711,0.0002914,69.9976,197.6526,272.9576,87.1277,0.00012579,7.22e-05,0.0,0 STARLINK-5645,1 55429U 23014AQ  23121.55598302  .00007220  00000-0  12579-3 0  9999,2 55429  69.9976 197.6526 0002914 272.9576  87.1277 15.51185711 15231,6791.4,92.832,415.244,411.286,0.0
55429.0,STARLINK-5645,PAYLOAD,2023-05-01 16:26:18,15.51228264,0.000304,69.9977,197.3004,265.7481,94.3358,-2.4257e-06,-3.07e-06,0.0,0 STARLINK-5645,1 55429U 23014AQ  23121.68494119 -.00000307  00000-0 -24257-5 0  9993,2 55429  69.9977 197.3004 0003040 265.7481  94.3358 15.51228264 15259,6791.276,92.83,415.205,411.076,0.0
55429.0,STARLINK-5645,PAYLOAD,2023-05-02 04:49:22,15.51089378,0.000359,69.9975,195.8901,257.2942,102.7843,-0.00027497,-0.00016207,0.0,0 STARLINK-5645,1 55429U 23014AQ  23122.20096026 -.00016207  00000-0 -27497-3 0  9990,2 55429  69.9975 195.8901 0003590 257.2942 102.7843 15.51089378 14392,6791.681,92.838,415.984,411.108,0.0
55429.0,STARLINK-5645,PAYLOAD,2023-05-02 12:34:19,15.50638485,0.0003122,69.9977,195.0105,271.9642,88.1186,-0.0012362,-0.0007065,0.0,0 STARLINK-5645,1 55429U 23014AQ  23122.52384114 -.00070650  00000-0 -12362-2 0  9999,2 55429  69.9977 195.0105 0003122 271.9642  88.1186 15.50638485 14444,6792.998,92.865,416.983,412.742,0.0
55429.0,STARLINK-5645,PAYLOAD,2023-05-02 15:40:47,15.50247606,0.0002824,69.9973,194.6595,269.3645,90.7218,-0.0019606,-0.0010987,0.0,0 STARLINK-5645,1 55429U 23014AQ  23122.65332675 -.00109870  00000-0 -19606-2 0  9993,2 55429  69.9973 194.6595 0002824 269.3645  90.7218 15.50247606 14468,6794.14,92.888,417.923,414.086,0.0
